NORAD_CAT_ID,OBJECT_NAME,OBJECT_TYPE,EPOCH,MEAN_MOTION,ECCENTRICITY,INCLINATION,RA_OF_ASC_NODE,ARG_OF_PERICENTER,MEAN_ANOMALY,BSTAR,MEAN_MOTION_DOT,MEAN_MOTION_DDOT,TLE_LINE0,TLE_LINE1,TLE_LINE2,SEMIMAJOR_AXIS,PERIOD,APOGEE,PERIGEE,DECAYED
52665.0,STARLINK-4064,PAYLOAD,2024-04-27 20:18:43,15.08833968,0.0001056,53.2179,330.5436,64.8,295.3102,-8.8453e-05,-1.695e-05,0.0,0 STARLINK-4064,1 52665U 22053K   24118.84634035 -.00001695  00000-0 -88453-4 0  9990,2 52665  53.2179 330.5436 0001056  64.8000 295.3102 15.08833968108267,6917.899,95.438,540.494,539.033,0.0
52665.0,STARLINK-4064,PAYLOAD,2024-04-27 21:54:06,15.08834088,9.96e-05,53.2174,330.2462,64.9955,295.1141,-8.3955e-05,-1.623e-05,0.0,0 STARLINK-4064,1 52665U 22053K   24118.91258040 -.00001623  00000-0 -83955-4 0  9999,2 52665  53.2174 330.2462 0000996  64.9955 295.1141 15.08834088108276,6917.898,95.438,540.452,539.074,0.0
52665.0,STARLINK-4064,PAYLOAD,2024-04-28 13:47:58,15.08836522,9.45e-05,53.217,327.2747,64.5471,295.5619,0.00020427,2.964e-05,0.0,0 STARLINK-4064,1 52665U 22053K   24119.57497982  .00002964  00000-0  20427-3 0  9993,2 52665  53.2170 327.2747 0000945  64.5471 295.5619 15.08836522108377,6917.891,95.438,540.41,539.102,0.0
52665.0,STARLINK-4064,PAYLOAD,2024-04-28 20:09:30,15.08837747,0.0001108,53.2176,326.0854,74.2501,285.8613,0.00014674,2.048e-05,0.0,0 STARLINK-4064,1 52665U 22053K   24119.83994127  .00002048  00000-0  14674-3 0  9995,2 52665  53.2176 326.0854 0001108  74.2501 285.8613 15.08837747108414,6917.887,95.438,540.519,538.986,0.0
52665.0,STARLINK-4064,PAYLOAD,2024-04-29 20:00:17,15.08847065,0.000103,53.2175,321.6262,65.572,294.5379,0.00021281,3.101e-05,0.0,0 STARLINK-4064,1 52665U 22053K   24120.83353756  .00003101  00000-0  21281-3 0  9997,2 52665  53.2175 321.6262 0001030  65.5720 294.5379 15.08847065108563,6917.859,95.437,540.436,539.011,0.0
52665.0,STARLINK-4064,PAYLOAD,2024-04-30 19:51:04,15.0883944,7.52e-05,53.2179,317.1647,80.3418,279.7659,4.1633e-05,3.75e-06,0.0,0 STARLINK-4064,1 52665U 22053K   24121.82713793  .00000375  00000-0  41633-4 0  9992,2 52665  53.2179 317.1647 0000752  80.3418 279.7659 15.08839440108714,6917.882,95.438,540.267,539.227,0.0
52665.0,STARLINK-4064,PAYLOAD,2024-05-01 05:23:23,15.08841,7.47e-05,53.2188,315.3802,80.8789,279.2287,8.2131e-05,1.02e-05,0.0,0 STARLINK-4064,1 52665U 22053K   24122.22457814  .00001020  00000-0  82131-4 0  9992,2 52665  53.2188 315.3802 0000747  80.8789 279.2287 15.08841000108770,6917.877,95.437,540.259,539.226,0.0
52665.0,STARLINK-4064,PAYLOAD,2024-05-01 19:41:52,15.08837203,9.79e-05,53.2195,312.7044,122.2606,237.8481,-2.6171e-05,-7.04e-06,0.0,0 STARLINK-4064,1 52665U 22053K   24122.82074215 -.00000704  00000-0 -26171-4 0  9990,2 52665  53.2195 312.7044 0000979 122.2606 237.8481 15.08837203108869,6917.889,95.438,540.431,539.077,0.0
52665.0,STARLINK-4064,PAYLOAD,2024-05-01 22:52:38,15.08837473,9.54e-05,53.2201,312.1086,97.3499,262.7602,4.7618e-05,4.7e-06,0.0,0 STARLINK-4064,1 52665U 22053K   24122.95322226  .00000470  00000-0  47618-4 0  9999,2 52665  53.2201 312.1086 0000954  97.3499 262.7602 15.08837473108885,6917.888,95.438,540.413,539.093,0.0
52665.0,STARLINK-4064,PAYLOAD,2024-05-02 13:11:06,15.08832517,9.34e-05,53.2197,309.4324,93.738,266.3719,0.00012562,1.712e-05,0.0,0 STARLINK-4064,1 52665U 22053K   24123.54938121  .00001712  00000-0  12562-3 0  9991,2 52665  53.2197 309.4324 0000934  93.7380 266.3719 15.08832517108973,6917.903,95.438,540.414,539.122,0.0
52665.0,STARLINK-4064,PAYLOAD,2024-05-03 05:04:57,15.08846088,8.7e-05,53.2186,306.4571,78.7304,281.3786,0.00018643,2.681e-05,0.0,0 STARLINK-4064,1 52665U 22053K   24124.21177263  .00002681  00000-0  18643-3 0  9990,2 52665  53.2186 306.4571 0000870  78.7304 281.3786 15.08846088109071,6917.862,95.437,540.329,539.125,0.0
52665.0,STARLINK-4064,PAYLOAD,2024-05-03 19:23:25,15.0884252,8.87e-05,53.2179,303.7818,80.1705,279.9387,0.00010337,1.358e-05,0.0,0 STARLINK-4064,1 52665U 22053K   24124.80793651  .00001358  00000-0  10337-3 0  9992,2 52665  53.2179 303.7818 0000887  80.1705 279.9387 15.08842520109164,6917.873,95.437,540.351,539.124,0.0
52665.0,STARLINK-4064,PAYLOAD,2024-05-03 20:58:48,15.08844004,9.49e-05,53.2184,303.4848,83.1895,276.9205,0.00011414,1.529e-05,0.0,0 STARLINK-4064,1 52665U 22053K   24124.87417527  .00001529  00000-0  11414-3 0  9991,2 52665  53.2184 303.4848 0000949  83.1895 276.9205 15.08844004109178,6917.868,95.437,540.39,539.077,0.0
52665.0,STARLINK-4064,PAYLOAD,2024-05-04 20:49:36,15.0883792,8.68e-05,53.2184,299.0219,79.6208,280.4882,2.4689e-06,-2.48e-06,0.0,0 STARLINK-4064,1 52665U 22053K   24125.86778388 -.00000248  00000-0  24689-5 0  9994,2 52665  53.2184 299.0219 0000868  79.6208 280.4882 15.08837920109325,6917.887,95.438,540.352,539.151,0.0
52665.0,STARLINK-4064,PAYLOAD,2024-05-05 11:08:04,15.0884132,8.39e-05,53.2181,296.3484,79.9354,280.1733,8.2636e-05,1.028e-05,0.0,0 STARLINK-4064,1 52665U 22053K   24126.46394009  .00001028  00000-0  82636-4 0  9996,2 52665  53.2181 296.3484 0000839  79.9354 280.1733 15.08841320109410,6917.876,95.437,540.322,539.161,0.0
52665.0,STARLINK-4064,PAYLOAD,2024-05-05 20:40:24,15.08833195,8.25e-05,53.2181,294.5636,80.3697,279.7389,-2.7895e-05,-7.31e-06,0.0,0 STARLINK-4064,1 52665U 22053K   24126.86139457 -.00000731  00000-0 -27895-4 0  9992,2 52665  53.2181 294.5636 0000825  80.3697 279.7389 15.08833195109478,6917.901,95.438,540.337,539.195,0.0
52665.0,STARLINK-4064,PAYLOAD,2024-05-06 14:09:38,15.0884058,7.11e-05,53.2164,291.2936,61.8232,298.2832,0.00037153,5.63e-05,0.0,0 STARLINK-4064,1 52665U 22053K   24127.59003322  .00005630  00000-0  37153-3 0  9992,2 52665  53.2164 291.2936 0000711  61.8232 298.2832 15.08840580109586,6917.879,95.438,540.235,539.252,0.0
52665.0,STARLINK-4064,PAYLOAD,2024-05-06 17:20:24,15.0885448,8.04e-05,53.2171,290.698,74.0416,286.0665,0.00059334,9.171e-05,0.0,0 STARLINK-4064,1 52665U 22053K   24127.72250880  .00009171  00000-0  59334-3 0  9999,2 52665  53.2171 290.6980 0000804  74.0416 286.0665 15.08854480109605,6917.836,95.437,540.257,539.145,0.0
52665.0,STARLINK-4064,PAYLOAD,2024-05-07 14:00:25,15.08838457,8.03e-05,53.2181,286.8291,105.0823,255.0258,-0.00024027,-4.109e-05,0.0,0 STARLINK-4064,1 52665U 22053K   24128.58362854 -.00004109  00000-0 -24027-3 0  9998,2 52665  53.2181 286.8291 0000803 105.0823 255.0258 15.08838457109738,6917.885,95.438,540.306,539.195,0.0
52665.0,STARLINK-4064,PAYLOAD,2024-05-07 20:21:58,15.08843178,0.0001003,53.217,285.6406,94.926,265.1847,-8.3886e-05,-1.623e-05,0.0,0 STARLINK-4064,1 52665U 22053K   24128.84858826 -.00001623  00000-0 -83886-4 0  9993,2 52665  53.2170 285.6406 0001003  94.9260 265.1847 15.08843178109771,6917.871,95.437,540.43,539.042,0.0
52665.0,STARLINK-4064,PAYLOAD,2024-05-08 13:51:12,15.08846991,9.38e-05,53.2172,282.3699,98.9327,261.1771,0.0007393,0.000115,0.0,0 STARLINK-4064,1 52665U 22053K   24129.57723002  .00011500  00000-0  73930-3 0  9992,2 52665  53.2172 282.3699 0000938  98.9327 261.1771 15.08846991109885,6917.859,95.437,540.373,539.075,0.0
52665.0,STARLINK-4064,PAYLOAD,2024-05-08 17:01:58,15.08852325,9.5e-05,53.217,281.7761,78.9478,281.1621,0.00086244,0.00013469,0.0,0 STARLINK-4064,1 52665U 22053K   24129.70970960  .00013469  00000-0  86244-3 0  9992,2 52665  53.2170 281.7761 0000950  78.9478 281.1621 15.08852325109902,6917.843,95.437,540.365,539.051,0.0
52665.0,STARLINK-4064,PAYLOAD,2024-05-09 02:34:17,15.08872928,9.46e-05,53.2169,279.9914,78.8096,281.3002,0.0012005,0.00018887,0.0,0 STARLINK-4064,1 52665U 22053K   24130.10714176  .00018887  00000-0  12005-2 0  9995,2 52665  53.2169 279.9914 0000946  78.8096 281.3002 15.08872928109961,6917.78,95.435,540.299,538.99,0.0
52665.0,STARLINK-4064,PAYLOAD,2024-05-09 10:31:13,15.08834537,9.39e-05,53.2175,278.5039,101.6401,258.4697,-0.00034104,-5.71e-05,0.0,0 STARLINK-4064,1 52665U 22053K   24130.43834595 -.00005710  00000-0 -34104-3 0  9997,2 52665  53.2175 278.5039 0000939 101.6401 258.4697 15.08834537110015,6917.897,95.438,540.412,539.112,0.0
52665.0,STARLINK-4064,PAYLOAD,2024-05-09 13:41:59,15.08840155,0.0001043,53.217,277.9106,101.0242,259.0867,-3.7504e-05,-8.85e-06,0.0,0 STARLINK-4064,1 52665U 22053K   24130.57082642 -.00000885  00000-0 -37504-4 0  9996,2 52665  53.2170 277.9106 0001043 101.0242 259.0867 15.08840155110033,6917.88,95.438,540.466,539.023,0.0
52665.0,STARLINK-4064,PAYLOAD,2024-05-09 16:52:45,15.08843429,9.11e-05,53.2173,277.3174,97.8515,262.258,0.00026417,3.919e-05,0.0,0 STARLINK-4064,1 52665U 22053K   24130.70330627  .00003919  00000-0  26417-3 0  9999,2 52665  53.2173 277.3174 0000911  97.8515 262.2580 15.08843429110050,6917.87,95.437,540.365,539.105,0.0
52665.0,STARLINK-4064,PAYLOAD,2024-05-10 02:25:04,15.08859755,9.21e-05,53.2178,275.533,95.2627,264.847,0.0014074,0.00022194,0.0,0 STARLINK-4064,1 52665U 22053K   24131.10074538  .00022194  00000-0  14074-2 0  9991,2 52665  53.2178 275.5330 0000921  95.2627 264.8470 15.08859755110118,6917.82,95.436,540.322,539.048,0.0
52665.0,STARLINK-4064,PAYLOAD,2024-05-10 13:32:46,15.08844042,8.88e-05,53.2172,273.4501,72.13,287.9789,0.00091663,0.00014332,0.0,0 STARLINK-4064,1 52665U 22053K   24131.56443009  .00014332  00000-0  91663-3 0  9999,2 52665  53.2172 273.4501 0000888  72.1300 287.9789 15.08844042110182,6917.868,95.437,540.347,539.119,0.0
52665.0,STARLINK-4064,PAYLOAD,2024-05-10 16:43:33,15.08850152,8.14e-05,53.2175,272.8566,74.2678,285.8404,0.0023331,0.00037049,0.0,0 STARLINK-4064,1 52665U 22053K   24131.69691074  .00037049  00000-0  23331-2 0  9996,2 52665  53.2175 272.8566 0000814  74.2678 285.8404 15.08850152110202,6917.849,95.437,540.277,539.151,0.0
52665.0,STARLINK-4064,PAYLOAD,2024-05-11 13:23:30,15.08962643,8.88e-05,53.2175,268.9926,87.1724,272.937,0.0045761,0.00073548,0.0,0 STARLINK-4064,1 52665U 22053K   24132.55799666  .00073548  00000-0  45761-2 0  9993,2 52665  53.2175 268.9926 0000888  87.1724 272.9370 15.08962643110336,6917.506,95.43,539.985,538.756,0.0
